{
  "type": "FeatureCollection",
  "features": [
    {
      "type": "Feature",
      "properties": {
        "norad_id": 34079,
        "name": "IRIDIUM 33 DEB",
        "group": "iridium-33-debris",
        "lat": 12.816044648702222,
        "lon": 14.200385863194757,
        "alt_km": 616.5808309186596,
        "timestamp": "2025-12-02T08:59:33.099209+00:00",
        "meta_object_name": "IRIDIUM 33 DEB",
        "meta_object_id": "1997-051CN",
        "meta_epoch": "2025-12-02T02:41:47.765760",
        "meta_mean_motion": 14.83089059,
        "meta_eccentricity": 0.0006819,
        "meta_inclination": 86.379,
        "meta_ra_of_asc_node": 13.4941,
        "meta_arg_of_pericenter": 39.8853,
        "meta_mean_anomaly": 13.4166,
        "meta_ephemeris_type": 0,
        "meta_classification_type": "U",
        "meta_norad_cat_id": 34079,
        "meta_element_set_no": 999,
        "meta_rev_at_epoch": 88820,
        "meta_bstar": 0.0017615,
        "meta_mean_motion_dot": 0.00014386,
        "meta_mean_motion_ddot": 0,
        "tle_line1": "1 34079U 97051CN  25336.11235840  .00014386  00000+0  17615-2 0  9991",
        "tle_line2": "2 34079  86.3790  13.4941 0006819  39.8853  13.4166 14.83089059888204"
      },
      "geometry": {
        "type": "Point",
        "coordinates": [
          14.200385863194757,
          12.816044648702222
        ]
      }
    },
    {
      "type": "Feature",
      "properties": {
        "norad_id": 34088,
        "name": "IRIDIUM 33 DEB",
        "group": "iridium-33-debris",
        "lat": 1.4163827278014058,
        "lon": -144.60573619732983,
        "alt_km": 596.3065032885397,
        "timestamp": "2025-12-02T08:59:33.099220+00:00",
        "meta_object_name": "IRIDIUM 33 DEB",
        "meta_object_id": "1997-051CX",
        "meta_epoch": "2025-12-02T03:37:18.414912",
        "meta_mean_motion": 14.90543646,
        "meta_eccentricity": 0.0005151,
        "meta_inclination": 86.3865,
        "meta_ra_of_asc_node": 35.5864,
        "meta_arg_of_pericenter": 217.1518,
        "meta_mean_anomaly": 201.3368,
        "meta_ephemeris_type": 0,
        "meta_classification_type": "U",
        "meta_norad_cat_id": 34088,
        "meta_element_set_no": 999,
        "meta_rev_at_epoch": 88584,
        "meta_bstar": 0.0030325,
        "meta_mean_motion_dot": 0.00029754,
        "meta_mean_motion_ddot": 0,
        "tle_line1": "1 34088U 97051CX  25336.15090758  .00029754  00000+0  30325-2 0  9990",
        "tle_line2": "2 34088  86.3865  35.5864 0005151 217.1518 201.3368 14.90543646885847"
      },
      "geometry": {
        "type": "Point",
        "coordinates": [
          -144.60573619732983,
          1.4163827278014058
        ]
      }
    },
    {
      "type": "Feature",
      "properties": {
        "norad_id": 34091,
        "name": "IRIDIUM 33 DEB",
        "group": "iridium-33-debris",
        "lat": 9.069344634920597,
        "lon": 72.16039486805943,
        "alt_km": 611.5706843262769,
        "timestamp": "2025-12-02T08:59:33.099231+00:00",
        "meta_object_name": "IRIDIUM 33 DEB",
        "meta_object_id": "1997-051DA",
        "meta_epoch": "2025-12-01T18:21:08.453088",
        "meta_mean_motion": 14.80452888,
        "meta_eccentricity": 0.0032842,
        "meta_inclination": 86.342,
        "meta_ra_of_asc_node": 71.854,
        "meta_arg_of_pericenter": 332.8724,
        "meta_mean_anomaly": 27.078,
        "meta_ephemeris_type": 0,
        "meta_classification_type": "U",
        "meta_norad_cat_id": 34091,
        "meta_element_set_no": 999,
        "meta_rev_at_epoch": 87704,
        "meta_bstar": 0.0048913,
        "meta_mean_motion_dot": 0.0003792,
        "meta_mean_motion_ddot": 0,
        "tle_line1": "1 34091U 97051DA  25335.76468117  .00037920  00000+0  48913-2 0  9994",
        "tle_line2": "2 34091  86.3420  71.8540 0032842 332.8724  27.0780 14.80452888877043"
      },
      "geometry": {
        "type": "Point",
        "coordinates": [
          72.16039486805943,
          9.069344634920597
        ]
      }
    },
    {
      "type": "Feature",
      "properties": {
        "norad_id": 34097,
        "name": "IRIDIUM 33 DEB",
        "group": "iridium-33-debris",
        "lat": -9.465076285926374,
        "lon": -173.38268232530655,
        "alt_km": 834.0318579935702,
        "timestamp": "2025-12-02T08:59:33.099241+00:00",
        "meta_object_name": "IRIDIUM 33 DEB",
        "meta_object_id": "1997-051DG",
        "meta_epoch": "2025-12-02T03:05:43.363968",
        "meta_mean_motion": 14.34646707,
        "meta_eccentricity": 0.0083801,
        "meta_inclination": 86.2012,
        "meta_ra_of_asc_node": 6.091,
        "meta_arg_of_pericenter": 36.59,
        "meta_mean_anomaly": 324.0979,
        "meta_ephemeris_type": 0,
        "meta_classification_type": "U",
        "meta_norad_cat_id": 34097,
        "meta_element_set_no": 999,
        "meta_rev_at_epoch": 86967,
        "meta_bstar": 0.0014393,
        "meta_mean_motion_dot": 4.252e-05,
        "meta_mean_motion_ddot": 0,
        "tle_line1": "1 34097U 97051DG  25336.12897412  .00004252  00000+0  14393-2 0  9992",
        "tle_line2": "2 34097  86.2012   6.0910 0083801  36.5900 324.0979 14.34646707869675"
      },
      "geometry": {
        "type": "Point",
        "coordinates": [
          -173.38268232530655,
          -9.465076285926374
        ]
      }
    },
    {
      "type": "Feature",
      "properties": {
        "norad_id": 34145,
        "name": "IRIDIUM 33 DEB",
        "group": "iridium-33-debris",
        "lat": 1.2755216884397125,
        "lon": 157.05902394472866,
        "alt_km": 729.7804173397808,
        "timestamp": "2025-12-02T08:59:33.099268+00:00",
        "meta_object_name": "IRIDIUM 33 DEB",
        "meta_object_id": "1997-051DY",
        "meta_epoch": "2025-12-01T23:50:43.692864",
        "meta_mean_motion": 14.42169477,
        "meta_eccentricity": 0.0055179,
        "meta_inclination": 86.2117,
        "meta_ra_of_asc_node": 337.3132,
        "meta_arg_of_pericenter": 128.0114,
        "meta_mean_anomaly": 232.6087,
        "meta_ephemeris_type": 0,
        "meta_classification_type": "U",
        "meta_norad_cat_id": 34145,
        "meta_element_set_no": 999,
        "meta_rev_at_epoch": 87483,
        "meta_bstar": 0.0011324,
        "meta_mean_motion_dot": 3.815e-05,
        "meta_mean_motion_ddot": 0,
        "tle_line1": "1 34145U 97051DY  25335.99356126  .00003815  00000+0  11324-2 0  9997",
        "tle_line2": "2 34145  86.2117 337.3132 0055179 128.0114 232.6087 14.42169477874833"
      },
      "geometry": {
        "type": "Point",
        "coordinates": [
          157.05902394472866,
          1.2755216884397125
        ]
      }
    },
    {
      "type": "Feature",
      "properties": {
        "norad_id": 34146,
        "name": "IRIDIUM 33 DEB",
        "group": "iridium-33-debris",
        "lat": -75.52713199577174,
        "lon": -20.20366845102636,
        "alt_km": 720.4783722002203,
        "timestamp": "2025-12-02T08:59:33.099281+00:00",
        "meta_object_name": "IRIDIUM 33 DEB",
        "meta_object_id": "1997-051DZ",
        "meta_epoch": "2025-12-02T01:19:27.768000",
        "meta_mean_motion": 14.4892623,
        "meta_eccentricity": 0.0024968,
        "meta_inclination": 86.284,
        "meta_ra_of_asc_node": 354.5208,
        "meta_arg_of_pericenter": 260.0477,
        "meta_mean_anomaly": 158.3382,
        "meta_ephemeris_type": 0,
        "meta_classification_type": "U",
        "meta_norad_cat_id": 34146,
        "meta_element_set_no": 999,
        "meta_rev_at_epoch": 87952,
        "meta_bstar": 0.0011057,
        "meta_mean_motion_dot": 4.221e-05,
        "meta_mean_motion_ddot": 0,
        "tle_line1": "1 34146U 97051DZ  25336.05518250  .00004221  00000+0  11057-2 0  9999",
        "tle_line2": "2 34146  86.2840 354.5208 0024968 260.0477 158.3382 14.48926230879520"
      },
      "geometry": {
        "type": "Point",
        "coordinates": [
          -20.20366845102636,
          -75.52713199577174
        ]
      }
    },
    {
      "type": "Feature",
      "properties": {
        "norad_id": 34159,
        "name": "IRIDIUM 33 DEB",
        "group": "iridium-33-debris",
        "lat": 30.778973087639862,
        "lon": 54.83795583641341,
        "alt_km": 754.4924883406884,
        "timestamp": "2025-12-02T08:59:33.099292+00:00",
        "meta_object_name": "IRIDIUM 33 DEB",
        "meta_object_id": "1997-051EN",
        "meta_epoch": "2025-12-01T14:29:07.196928",
        "meta_mean_motion": 14.38447041,
        "meta_eccentricity": 0.00266116,
        "meta_inclination": 86.3516,
        "meta_ra_of_asc_node": 52.9886,
        "meta_arg_of_pericenter": 326.7615,
        "meta_mean_anomaly": 33.191,
        "meta_ephemeris_type": 0,
        "meta_classification_type": "U",
        "meta_norad_cat_id": 34159,
        "meta_element_set_no": 999,
        "meta_rev_at_epoch": 87799,
        "meta_bstar": 0.00044184185,
        "meta_mean_motion_dot": 1.372e-05,
        "meta_mean_motion_ddot": 0,
        "tle_line1": "1 34159U 97051EN  25335.60355552  .00001372  00000+0  44184-3 0  9999",
        "tle_line2": "2 34159  86.3516  52.9886 0026611 326.7615  33.1910 14.38447041877990"
      },
      "geometry": {
        "type": "Point",
        "coordinates": [
          54.83795583641341,
          30.778973087639862
        ]
      }
    }
  ]
}